TRANSPORTER-15 OBJECT H 
1 66673U 25276H   26132.67536652  .00005989  00000+0  26547-3 0  9991
2 66673  97.4167 206.9590 0007825 133.7845 226.4039 15.21958056 25047
BRO-20                  
1 66674U 25276J   26133.15990166  .00002368  00000+0  11993-3 0  9997
2 66674  97.4175 206.9511 0007938 120.5974 239.6044 15.17932032 25089
VEERY-0G                
1 66675U 25276K   26133.16037226  .00006206  00000+0  28925-3 0  9996
2 66675  97.4185 207.2748 0007382 123.5505 236.6436 15.20215454 25104
TRANSPORTER-15 OBJECT L 
1 66676U 25276L   26133.18288269  .00003172  00000+0  15620-3 0  9991
2 66676  97.4186 207.0981 0007466 121.5692 238.6272 15.18668754 25091
TRANSPORTER-15 OBJECT M 
1 66677U 25276M   26132.19431110  .00005934  00000+0  26278-3 0  9996
2 66677  97.4188 206.5791 0006660 132.0802 228.1001 15.22003494 24971
LEMUR-2-DEANANDMAEVE    
1 66678U 25276N   26132.75374040  .00004540  00000+0  21834-3 0  9992
2 66678  97.4221 206.8286 0007320 118.5039 241.6934 15.19271796 25038
LILIUM-2                
1 66679U 25276P   26132.90411997  .00001505  00000+0  77797-4 0  9991
2 66679  97.4163 206.6583 0007455 122.8717 237.3235 15.17769978 25041
OTTER                   
1 66680U 25276Q   26133.17541116  .00003532  00000+0  17286-3 0  9998
2 66680  97.4216 207.1633 0007569 116.0185 244.1830 15.18807650 25097
TRANSPORTER-15 OBJECT R 
1 66681U 25276R   26132.94194101  .00010426  00000+0  44756-3 0  9993
2 66681  97.4131 207.2948 0006737 136.1756 224.0016 15.22870245 25095
ION SCV-022             
1 66682U 25276S   26132.09516420  .00000536  00000+0  50746-4 0  9990
2 66682  97.5309 204.0695 0002716 315.7557  44.3448 14.97492835 24676
6GSTARLAB               
1 66683U 25276T   26133.19339806  .00001831  00000+0  92780-4 0  9997
2 66683  97.4254 207.2228 0007485 112.3535 247.8493 15.18194397 25090
MICE-1                  
1 66684U 25276U   26133.00328253  .00002351  00000+0  11578-3 0  9995
2 66684  97.4279 207.2228 0007123 112.3074 247.8916 15.18927837 25076
TRANSPORTER-15 OBJECT V 
1 66685U 25276V   26132.98305540  .00009096  00000+0  40109-3 0  9991
2 66685  97.4226 207.4354 0006387 127.1434 233.0387 15.21997367 25096
LEMUR-2-STAS-GORBUK     
1 66686U 25276W   26133.15609671  .00004004  00000+0  19456-3 0  9999
2 66686  97.4258 207.2799 0006937 114.4115 245.7844 15.18986944 25092
LEO EXPRESS 3           
1 66687U 25276X   26133.17165686  .00004931  00000+0  23013-3 0  9998
2 66687  97.4266 207.3504 0004492 269.4999  90.5722 15.20292817 25107
WISDOM A                
1 66688U 25276Y   26132.95382890  .00003684  00000+0  17932-3 0  9999
2 66688  97.4230 207.0398 0006514 116.1599 244.0306 15.18983091 25065
AC1-003                 
1 66689U 25276Z   26132.92490060  .00001426  00000+0  73281-4 0  9998
2 66689  97.4214 206.8925 0004171 120.5397 239.6249 15.18068057 25054
TRANSPORTER-15 OBJECT AA
1 66690U 25276AA  26133.16416147  .00002969  00000+0  14616-3 0  9990
2 66690  97.4193 207.1363 0006366 116.1048 244.0842 15.18733589 25096
TRANSPORTER-15 OBJECT AB
1 66691U 25276AB  26133.00569863  .00006255  00000+0  29060-3 0  9999
2 66691  97.4213 207.2408 0006233 117.8313 242.3554 15.20334393 25080
NUSAT-52                
1 66692U 25276AC  26133.17964668  .00003325  00000+0  16052-3 0  9992
2 66692  97.4216 207.3224 0004448 123.8728 236.2931 15.19341117 25108
TRANSPORTER-15 OBJECT AD
1 66693U 25276AD  26132.45321538  .00008514  00000+0  37789-3 0  9991
2 66693  97.4181 206.8236 0005455 131.3965 228.7741 15.21796309 25018
YAM-9                   
1 66694U 25276AE  26133.18299077  .00003218  00000+0  17766-3 0  9994
2 66694  97.4223 206.5690 0010473  77.7481 282.4924 15.14596178 25057
IRIDE FM1               
1 66695U 25276AF  26132.93985492  .00003577  00000+0  16695-3 0  9998
2 66695  97.4204 207.3000 0002369  92.5351 267.6156 15.20473690 25082
IRIDE FM2               
1 66696U 25276AG  26133.15172959  .00001577  00000+0  76494-4 0  9992
2 66696  97.4189 207.2965 0005239 124.1104 236.0629 15.19947288 25106
IRIDE FM3               
1 66697U 25276AH  26132.61761106  .00003114  00000+0  14590-3 0  9998
2 66697  97.4195 206.9389 0003116  95.2351 264.9240 15.20441385 25034
IRIDE FM4               
1 66698U 25276AJ  26132.92308028  .00003790  00000+0  18254-3 0  9994
2 66698  97.4194 206.9951 0005596 121.6723 238.5058 15.19339730 25065
IRIDE FM5               
1 66699U 25276AK  26133.16669430  .00004930  00000+0  23434-3 0  9992
2 66699  97.4208 207.3098 0005369 124.0719 236.1027 15.19652112 25106
IRIDE FM6               
1 66700U 25276AL  26132.66953758  .00005424  00000+0  24927-3 0  9995
2 66700  97.4227 207.0955 0002965  92.1782 267.9793 15.20777265 25047
IRIDE FM7               
1 66701U 25276AM  26132.96352366  .00003341  00000+0  15913-3 0  9998
2 66701  97.4227 207.1614 0005857 117.6198 242.5632 15.19804907 25074
IRIDE FM8               
1 66702U 25276AN  26132.76899470  .00004784  00000+0  22713-3 0  9997
2 66702  97.4202 206.9124 0005087 132.5586 227.6079 15.19703045 25040
