OBJECT_NAME,OBJECT_ID,EPOCH,MEAN_MOTION,ECCENTRICITY,INCLINATION,RA_OF_ASC_NODE,ARG_OF_PERICENTER,MEAN_ANOMALY,EPHEMERIS_TYPE,CLASSIFICATION_TYPE,NORAD_CAT_ID,ELEMENT_SET_NO,REV_AT_EPOCH,BSTAR,MEAN_MOTION_DOT,MEAN_MOTION_DDOT
TRANSPORTER-15 OBJECT H,2025-276H,2026-05-12T16:12:31.667328,15.21958056,.00078257,97.4167,206.9590,133.7845,226.4039,0,U,66673,999,2504,.26546521E-3,.5989E-4,0
BRO-20,2025-276J,2026-05-13T03:50:15.503424,15.17932032,.00079381,97.4175,206.9511,120.5974,239.6044,0,U,66674,999,2508,.11993326E-3,.2368E-4,0
VEERY-0G,2025-276K,2026-05-13T03:50:56.163264,15.20215454,.00073829,97.4185,207.2748,123.5505,236.6436,0,U,66675,999,2510,.28925259E-3,.6206E-4,0
TRANSPORTER-15 OBJECT L,2025-276L,2026-05-13T04:23:21.064416,15.18668754,.00074665,97.4186,207.0981,121.5692,238.6272,0,U,66676,999,2509,.15619805E-3,.3172E-4,0
TRANSPORTER-15 OBJECT M,2025-276M,2026-05-12T04:39:48.479040,15.22003494,.00066603,97.4188,206.5791,132.0802,228.1001,0,U,66677,999,2497,.26277588E-3,.5934E-4,0
LEMUR-2-DEANANDMAEVE,2025-276N,2026-05-12T18:05:23.170560,15.19271796,.00073208,97.4221,206.8286,118.5039,241.6934,0,U,66678,999,2503,.21834345E-3,.454E-4,0
LILIUM-2,2025-276P,2026-05-12T21:41:55.965408,15.17769978,.0007455,97.4163,206.6583,122.8717,237.3235,0,U,66679,999,2504,.77797E-4,.1505E-4,0
OTTER,2025-276Q,2026-05-13T04:12:35.524224,15.18807650,.00075695,97.4216,207.1633,116.0185,244.1830,0,U,66680,999,2509,.17286141E-3,.3532E-4,0
TRANSPORTER-15 OBJECT R,2025-276R,2026-05-12T22:36:23.703264,15.22870245,.0006737,97.4131,207.2948,136.1756,224.0016,0,U,66681,999,2509,.44756E-3,.10426E-3,0
ION SCV-022,2025-276S,2026-05-12T02:17:02.186880,14.97492835,.00027166,97.5309,204.0695,315.7557,44.3448,0,U,66682,999,2467,.5074563E-4,.536E-5,0
6GSTARLAB,2025-276T,2026-05-13T04:38:29.592384,15.18194397,.00074859,97.4254,207.2228,112.3535,247.8493,0,U,66683,999,2509,.92780184E-4,.1831E-4,0
MICE-1,2025-276U,2026-05-13T00:04:43.610592,15.18927837,.0007123,97.4279,207.2228,112.3074,247.8916,0,U,66684,999,2507,.11577877E-3,.2351E-4,0
TRANSPORTER-15 OBJECT V,2025-276V,2026-05-12T23:35:35.986560,15.21997367,.00063872,97.4226,207.4354,127.1434,233.0387,0,U,66685,999,2509,.40108801E-3,.9096E-4,0
LEMUR-2-STAS-GORBUK,2025-276W,2026-05-13T03:44:46.755744,15.18986944,.00069377,97.4258,207.2799,114.4115,245.7844,0,U,66686,999,2509,.19456046E-3,.4004E-4,0
LEO EXPRESS 3,2025-276X,2026-05-13T04:07:11.152704,15.20292817,.00044927,97.4266,207.3504,269.4999,90.5722,0,U,66687,999,2510,.2301262E-3,.4931E-4,0
WISDOM A,2025-276Y,2026-05-12T22:53:30.816960,15.18983091,.00065148,97.4230,207.0398,116.1599,244.0306,0,U,66688,999,2506,.1793211E-3,.3684E-4,0
AC1-003,2025-276Z,2026-05-12T22:11:51.411840,15.18068057,.0004171,97.4214,206.8925,120.5397,239.6249,0,U,66689,999,2505,.73281E-4,.1426E-4,0
TRANSPORTER-15 OBJECT AA,2025-276AA,2026-05-13T03:56:23.551008,15.18733589,.00063663,97.4193,207.1363,116.1048,244.0842,0,U,66690,999,2509,.14616205E-3,.2969E-4,0
TRANSPORTER-15 OBJECT AB,2025-276AB,2026-05-13T00:08:12.361632,15.20334393,.00062333,97.4213,207.2408,117.8313,242.3554,0,U,66691,999,2508,.29059503E-3,.6255E-4,0
NUSAT-52,2025-276AC,2026-05-13T04:18:41.473152,15.19341117,.00044485,97.4216,207.3224,123.8728,236.2931,0,U,66692,999,2510,.16051902E-3,.3325E-4,0
TRANSPORTER-15 OBJECT AD,2025-276AD,2026-05-12T10:52:37.808832,15.21796309,.0005455,97.4181,206.8236,131.3965,228.7741,0,U,66693,999,2501,.37789E-3,.8514E-4,0
YAM-9,2025-276AE,2026-05-13T04:23:30.402528,15.14596178,.00104735,97.4223,206.5690,77.7481,282.4924,0,U,66694,999,2505,.17765878E-3,.3218E-4,0
IRIDE FM1,2025-276AF,2026-05-12T22:33:23.465088,15.20473690,.0002369,97.4204,207.3000,92.5351,267.6156,0,U,66695,999,2508,.16695E-3,.3577E-4,0
IRIDE FM2,2025-276AG,2026-05-13T03:38:29.436576,15.19947288,.00052396,97.4189,207.2965,124.1104,236.0629,0,U,66696,999,2510,.76494133E-4,.1577E-4,0
IRIDE FM3,2025-276AH,2026-05-12T14:49:21.595584,15.20441385,.00031163,97.4195,206.9389,95.2351,264.9240,0,U,66697,999,2503,.14589693E-3,.3114E-4,0
IRIDE FM4,2025-276AJ,2026-05-12T22:09:14.136192,15.19339730,.0005596,97.4194,206.9951,121.6723,238.5058,0,U,66698,999,2506,.18254E-3,.379E-4,0
IRIDE FM5,2025-276AK,2026-05-13T04:00:02.387520,15.19652112,.00053696,97.4208,207.3098,124.0719,236.1027,0,U,66699,999,2510,.23433647E-3,.493E-4,0
IRIDE FM6,2025-276AL,2026-05-12T16:04:08.046912,15.20777265,.00029655,97.4227,207.0955,92.1782,267.9793,0,U,66700,999,2504,.2492673E-3,.5424E-4,0
IRIDE FM7,2025-276AM,2026-05-12T23:07:28.444224,15.19804907,.00058575,97.4227,207.1614,117.6198,242.5632,0,U,66701,999,2507,.15913052E-3,.3341E-4,0
IRIDE FM8,2025-276AN,2026-05-12T18:27:21.142080,15.19703045,.00050872,97.4202,206.9124,132.5586,227.6079,0,U,66702,999,2504,.22713393E-3,.4784E-4,0
